CCSDS_OMM_VERS = 2.0
CREATION_DATE  = 
ORIGINATOR     = 

OBJECT_NAME    = ATLAS CENTAUR R/B
OBJECT_ID      = 1972-065B
CENTER_NAME    = EARTH
REF_FRAME      = TEME
TIME_SYSTEM    = UTC
MEAN_ELEMENT_THEORY = SGP/SGP4

EPOCH          = 2026-03-12T14:22:22.156320
MEAN_MOTION    = 14.77696510
ECCENTRICITY   = .0033211
INCLINATION    = 35.0012
RA_OF_ASC_NODE = 288.7053
ARG_OF_PERICENTER = 33.4821
MEAN_ANOMALY   = 326.7972

EPHEMERIS_TYPE = 0
CLASSIFICATION_TYPE = U
NORAD_CAT_ID   = 6155
ELEMENT_SET_NO = 999
REV_AT_EPOCH   = 84169
BSTAR          = .21928E-3
MEAN_MOTION_DOT = .1587E-4
MEAN_MOTION_DDOT = 0

CCSDS_OMM_VERS = 2.0
CREATION_DATE  = 
ORIGINATOR     = 

OBJECT_NAME    = SL-8 R/B
OBJECT_ID      = 1975-112B
CENTER_NAME    = EARTH
REF_FRAME      = TEME
TIME_SYSTEM    = UTC
MEAN_ELEMENT_THEORY = SGP/SGP4

EPOCH          = 2026-03-12T06:51:03.250656
MEAN_MOTION    = 14.38205493
ECCENTRICITY   = .0014425
INCLINATION    = 74.0632
RA_OF_ASC_NODE = 14.1370
ARG_OF_PERICENTER = 106.2723
MEAN_ANOMALY   = 254.0019

EPHEMERIS_TYPE = 0
CLASSIFICATION_TYPE = U
NORAD_CAT_ID   = 8459
ELEMENT_SET_NO = 999
REV_AT_EPOCH   = 63224
BSTAR          = .1111E-3
MEAN_MOTION_DOT = .312E-5
MEAN_MOTION_DDOT = 0

CCSDS_OMM_VERS = 2.0
CREATION_DATE  = 
ORIGINATOR     = 

OBJECT_NAME    = SL-3 R/B
OBJECT_ID      = 1977-057B
CENTER_NAME    = EARTH
REF_FRAME      = TEME
TIME_SYSTEM    = UTC
MEAN_ELEMENT_THEORY = SGP/SGP4

EPOCH          = 2026-03-12T15:10:46.867296
MEAN_MOTION    = 15.45585898
ECCENTRICITY   = .0006173
INCLINATION    = 97.5779
RA_OF_ASC_NODE = 243.6827
ARG_OF_PERICENTER = 272.6484
MEAN_ANOMALY   = 87.4058

EPHEMERIS_TYPE = 0
CLASSIFICATION_TYPE = U
NORAD_CAT_ID   = 10114
ELEMENT_SET_NO = 999
REV_AT_EPOCH   = 66878
BSTAR          = .31395E-3
MEAN_MOTION_DOT = .15025E-3
MEAN_MOTION_DDOT = 0

CCSDS_OMM_VERS = 2.0
CREATION_DATE  = 
ORIGINATOR     = 

OBJECT_NAME    = SEASAT 1
OBJECT_ID      = 1978-064A
CENTER_NAME    = EARTH
REF_FRAME      = TEME
TIME_SYSTEM    = UTC
MEAN_ELEMENT_THEORY = SGP/SGP4

EPOCH          = 2026-03-12T14:36:45.764928
MEAN_MOTION    = 14.46163073
ECCENTRICITY   = .0002359
INCLINATION    = 108.0104
RA_OF_ASC_NODE = 131.6255
ARG_OF_PERICENTER = 284.9001
MEAN_ANOMALY   = 75.1883

EPHEMERIS_TYPE = 0
CLASSIFICATION_TYPE = U
NORAD_CAT_ID   = 10967
ELEMENT_SET_NO = 999
REV_AT_EPOCH   = 50693
BSTAR          = .12581E-3
MEAN_MOTION_DOT = .313E-5
MEAN_MOTION_DDOT = 0

CCSDS_OMM_VERS = 2.0
CREATION_DATE  = 
ORIGINATOR     = 

OBJECT_NAME    = SL-14 R/B
OBJECT_ID      = 1979-011B
CENTER_NAME    = EARTH
REF_FRAME      = TEME
TIME_SYSTEM    = UTC
MEAN_ELEMENT_THEORY = SGP/SGP4

EPOCH          = 2026-03-12T12:45:26.632800
MEAN_MOTION    = 14.91912147
ECCENTRICITY   = .0017264
INCLINATION    = 82.5206
RA_OF_ASC_NODE = 93.8735
ARG_OF_PERICENTER = 51.7573
MEAN_ANOMALY   = 308.5197

EPHEMERIS_TYPE = 0
CLASSIFICATION_TYPE = U
NORAD_CAT_ID   = 11267
ELEMENT_SET_NO = 999
REV_AT_EPOCH   = 52920
BSTAR          = .65468E-4
MEAN_MOTION_DOT = .689E-5
MEAN_MOTION_DDOT = 0

CCSDS_OMM_VERS = 2.0
CREATION_DATE  = 
ORIGINATOR     = 

OBJECT_NAME    = SL-8 R/B
OBJECT_ID      = 1979-089B
CENTER_NAME    = EARTH
REF_FRAME      = TEME
TIME_SYSTEM    = UTC
MEAN_ELEMENT_THEORY = SGP/SGP4

EPOCH          = 2026-03-12T12:28:37.727040
MEAN_MOTION    = 14.42352706
ECCENTRICITY   = .001713
INCLINATION    = 74.0666
RA_OF_ASC_NODE = 85.8038
ARG_OF_PERICENTER = 258.2151
MEAN_ANOMALY   = 101.7084

EPHEMERIS_TYPE = 0
CLASSIFICATION_TYPE = U
NORAD_CAT_ID   = 11574
ELEMENT_SET_NO = 999
REV_AT_EPOCH   = 43651
BSTAR          = .10594E-3
MEAN_MOTION_DOT = .324E-5
MEAN_MOTION_DDOT = 0

CCSDS_OMM_VERS = 2.0
CREATION_DATE  = 
ORIGINATOR     = 

OBJECT_NAME    = SL-14 R/B
OBJECT_ID      = 1980-005B
CENTER_NAME    = EARTH
REF_FRAME      = TEME
TIME_SYSTEM    = UTC
MEAN_ELEMENT_THEORY = SGP/SGP4

EPOCH          = 2026-03-12T14:43:32.081664
MEAN_MOTION    = 14.90934208
ECCENTRICITY   = .0016415
INCLINATION    = 82.5139
RA_OF_ASC_NODE = 304.4628
ARG_OF_PERICENTER = 148.9273
MEAN_ANOMALY   = 211.2920

EPHEMERIS_TYPE = 0
CLASSIFICATION_TYPE = U
NORAD_CAT_ID   = 11672
ELEMENT_SET_NO = 999
REV_AT_EPOCH   = 47692
BSTAR          = .65178E-4
MEAN_MOTION_DOT = .67E-5
MEAN_MOTION_DDOT = 0

CCSDS_OMM_VERS = 2.0
CREATION_DATE  = 
ORIGINATOR     = 

OBJECT_NAME    = SL-8 R/B
OBJECT_ID      = 1981-003B
CENTER_NAME    = EARTH
REF_FRAME      = TEME
TIME_SYSTEM    = UTC
MEAN_ELEMENT_THEORY = SGP/SGP4

EPOCH          = 2026-03-12T15:35:35.780352
MEAN_MOTION    = 15.11095979
ECCENTRICITY   = .0261894
INCLINATION    = 82.9386
RA_OF_ASC_NODE = 287.2870
ARG_OF_PERICENTER = 168.3331
MEAN_ANOMALY   = 192.4138

EPHEMERIS_TYPE = 0
CLASSIFICATION_TYPE = U
NORAD_CAT_ID   = 12139
ELEMENT_SET_NO = 999
REV_AT_EPOCH   = 31512
BSTAR          = .49837E-3
MEAN_MOTION_DOT = .19494E-3
MEAN_MOTION_DDOT = 0

CCSDS_OMM_VERS = 2.0
CREATION_DATE  = 
ORIGINATOR     = 

OBJECT_NAME    = SL-3 R/B
OBJECT_ID      = 1981-046B
CENTER_NAME    = EARTH
REF_FRAME      = TEME
TIME_SYSTEM    = UTC
MEAN_ELEMENT_THEORY = SGP/SGP4

EPOCH          = 2026-03-12T15:21:02.634912
MEAN_MOTION    = 15.42076522
ECCENTRICITY   = .001934
INCLINATION    = 81.2298
RA_OF_ASC_NODE = 286.2016
ARG_OF_PERICENTER = 12.1603
MEAN_ANOMALY   = 348.0102

EPHEMERIS_TYPE = 0
CLASSIFICATION_TYPE = U
NORAD_CAT_ID   = 12465
ELEMENT_SET_NO = 999
REV_AT_EPOCH   = 43888
BSTAR          = .27479E-3
MEAN_MOTION_DOT = .11854E-3
MEAN_MOTION_DDOT = 0

CCSDS_OMM_VERS = 2.0
CREATION_DATE  = 
ORIGINATOR     = 

OBJECT_NAME    = SL-3 R/B
OBJECT_ID      = 1981-103B
CENTER_NAME    = EARTH
REF_FRAME      = TEME
TIME_SYSTEM    = UTC
MEAN_ELEMENT_THEORY = SGP/SGP4

EPOCH          = 2026-03-12T15:59:15.600192
MEAN_MOTION    = 15.21416799
ECCENTRICITY   = .0012315
INCLINATION    = 81.1586
RA_OF_ASC_NODE = 209.9404
ARG_OF_PERICENTER = 276.0441
MEAN_ANOMALY   = 83.9387

EPHEMERIS_TYPE = 0
CLASSIFICATION_TYPE = U
NORAD_CAT_ID   = 12904
ELEMENT_SET_NO = 999
REV_AT_EPOCH   = 97368
BSTAR          = .31327E-3
MEAN_MOTION_DOT = .7069E-4
MEAN_MOTION_DDOT = 0

CCSDS_OMM_VERS = 2.0
CREATION_DATE  = 
ORIGINATOR     = 

OBJECT_NAME    = SL-3 R/B
OBJECT_ID      = 1982-013B
CENTER_NAME    = EARTH
REF_FRAME      = TEME
TIME_SYSTEM    = UTC
MEAN_ELEMENT_THEORY = SGP/SGP4

EPOCH          = 2026-03-12T16:09:05.852160
MEAN_MOTION    = 15.22049416
ECCENTRICITY   = .0022778
INCLINATION    = 81.1759
RA_OF_ASC_NODE = 157.2746
ARG_OF_PERICENTER = 167.4345
MEAN_ANOMALY   = 192.7460

EPHEMERIS_TYPE = 0
CLASSIFICATION_TYPE = U
NORAD_CAT_ID   = 13068
ELEMENT_SET_NO = 999
REV_AT_EPOCH   = 40480
BSTAR          = .20092E-3
MEAN_MOTION_DOT = .4651E-4
MEAN_MOTION_DDOT = 0

CCSDS_OMM_VERS = 2.0
CREATION_DATE  = 
ORIGINATOR     = 

OBJECT_NAME    = SL-3 R/B
OBJECT_ID      = 1982-039B
CENTER_NAME    = EARTH
REF_FRAME      = TEME
TIME_SYSTEM    = UTC
MEAN_ELEMENT_THEORY = SGP/SGP4

EPOCH          = 2026-03-12T15:19:32.804832
MEAN_MOTION    = 15.10101113
ECCENTRICITY   = .0029599
INCLINATION    = 81.1578
RA_OF_ASC_NODE = 212.5622
ARG_OF_PERICENTER = 314.8570
MEAN_ANOMALY   = 45.0251

EPHEMERIS_TYPE = 0
CLASSIFICATION_TYPE = U
NORAD_CAT_ID   = 13154
ELEMENT_SET_NO = 999
REV_AT_EPOCH   = 38208
BSTAR          = .19549E-3
MEAN_MOTION_DOT = .3239E-4
MEAN_MOTION_DDOT = 0

