ATLAS CENTAUR R/B       
1 06155U 72065B   26071.59886755  .00001587  00000+0  21928-3 0  9991
2 06155  35.0012 288.7053 0033211  33.4821 326.7972 14.77696510841694
SL-8 R/B                
1 08459U 75112B   26071.28545429  .00000312  00000+0  11110-3 0  9999
2 08459  74.0632  14.1370 0014425 106.2723 254.0019 14.38205493632240
SL-3 R/B                
1 10114U 77057B   26071.63248689  .00015025  00000+0  31395-3 0  9991
2 10114  97.5779 243.6827 0006173 272.6484  87.4058 15.45585898668780
SEASAT 1                
1 10967U 78064A   26071.60886302  .00000313  00000+0  12581-3 0  9993
2 10967 108.0104 131.6255 0002359 284.9001  75.1883 14.46163073506935
SL-14 R/B               
1 11267U 79011B   26071.53155825  .00000689  00000+0  65468-4 0  9990
2 11267  82.5206  93.8735 0017264  51.7573 308.5197 14.91912147529205
SL-8 R/B                
1 11574U 79089B   26071.51988110  .00000324  00000+0  10594-3 0  9990
2 11574  74.0666  85.8038 0017130 258.2151 101.7084 14.42352706436511
SL-14 R/B               
1 11672U 80005B   26071.61356576  .00000670  00000+0  65178-4 0  9998
2 11672  82.5139 304.4628 0016415 148.9273 211.2920 14.90934208476920
SL-8 R/B                
1 12139U 81003B   26071.64971968  .00019494  00000+0  49837-3 0  9994
2 12139  82.9386 287.2870 0261894 168.3331 192.4138 15.11095979315120
SL-3 R/B                
1 12465U 81046B   26071.63961383  .00011854  00000+0  27479-3 0  9992
2 12465  81.2298 286.2016 0019340  12.1603 348.0102 15.42076522438888
SL-3 R/B                
1 12904U 81103B   26071.66615278  .00007069  00000+0  31327-3 0  9996
2 12904  81.1586 209.9404 0012315 276.0441  83.9387 15.21416799973687
SL-3 R/B                
1 13068U 82013B   26071.67298440  .00004651  00000+0  20092-3 0  9999
2 13068  81.1759 157.2746 0022778 167.4345 192.7460 15.22049416404808
SL-3 R/B                
1 13154U 82039B   26071.63857413  .00003239  00000+0  19549-3 0  9996
2 13154  81.1578 212.5622 0029599 314.8570  45.0251 15.10101113382080
